STARLINK-30534          
1 57992U 23153B   23299.66667824 -.01662994  00000+0 -17196-1 0  9999
2 57992  42.9997 103.2755 0001502 285.2792 204.3749 15.67004844  4495
STARLINK-30536          
1 57993U 23153C   23299.66667824 -.01661474  00000+0 -17182-1 0  9997
2 57993  43.0000 103.2723 0001307 284.2369 206.6384 15.67001505  4592
STARLINK-30538          
1 57994U 23153D   23299.66667824 -.01663318  00000+0 -17203-1 0  9991
2 57994  43.0001 103.2696 0001467 281.7438 210.3511 15.67000696  4481
STARLINK-30517          
1 57995U 23153E   23299.66667824 -.01662466  00000+0 -17194-1 0  9994
2 57995  43.0000 103.2678 0001486 282.7595 209.9457 15.66999086  4591
STARLINK-30543          
1 57996U 23153F   23299.46652908 -.00298440  00000+0 -12896-2 0  9991
2 57996  42.9985 103.7705 0003088 311.6335  48.4273 15.84671131  4569
STARLINK-30523          
1 57997U 23153G   23299.66667824 -.01662191  00000+0 -17190-1 0  9997
2 57997  43.0000 103.2708 0001422 283.0604 208.4249 15.67000860  4599
STARLINK-30531          
1 57998U 23153H   23299.66667824 -.01660782  00000+0 -17179-1 0  9999
2 57998  43.0001 103.2629 0001298 283.7326 210.8040 15.66994356  4599
STARLINK-30552          
1 57999U 23153J   23299.66667824 -.01660779  00000+0 -17178-1 0  9995
2 57999  43.0001 103.2652 0001331 286.3746 207.5517 15.66995381  4590
STARLINK-30545          
1 58000U 23153K   23299.66667824 -.01660509  00000+0 -17177-1 0  9999
2 58000  43.0001 103.2611 0001252 284.6859 210.4608 15.66993136  4597
STARLINK-30535          
1 58001U 23153L   23299.66667824 -.01662921  00000+0 -17204-1 0  9991
2 58001  43.0003 103.2601 0001356 278.3376 217.4186 15.66993868  4598
STARLINK-30540          
1 58002U 23153M   23299.66667824 -.01663082  00000+0 -17206-1 0  9993
2 58002  43.0004 103.2574 0001538 286.3624 210.6139 15.66991762  4488
STARLINK-30546          
1 58003U 23153N   23299.66667824 -.01663247  00000+0 -17207-1 0  9998
2 58003  43.0003 103.2589 0001539 282.6254 213.7405 15.66993072  4591
STARLINK-30539          
1 58004U 23153P   23299.66667824 -.01662057  00000+0 -17196-1 0  9994
2 58004  43.0003 103.2560 0001453 284.0552 213.5317 15.66989818  4585
STARLINK-30530          
1 58005U 23153Q   23299.66667824 -.01662894  00000+0 -17206-1 0  9996
2 58005  43.0003 103.2529 0001548 284.0317 214.7746 15.66988539  4594
STARLINK-30526          
1 58006U 23153R   23299.66667824  .00386037  00000+0  27348-2 0  9995
2 58006  43.0005 103.2284 0002895 308.3939 200.5296 15.72023150  4589
STARLINK-30527          
1 58007U 23153S   23299.66667824  .00454270  00000+0  27214-2 0  9993
2 58007  42.9993 103.0581 0006310 298.7246 278.1759 15.75713515  4524
STARLINK-30522          
1 58008U 23153T   23299.66667824 -.01662387  00000+0 -17203-1 0  9993
2 58008  43.0003 103.2497 0001431 280.4425 219.5851 15.66985619  4587
STARLINK-30486          
1 58009U 23153U   23299.66667824 -.01662464  00000+0 -17204-1 0  9991
2 58009  43.0002 103.2479 0001503 283.5616 217.0756 15.66984711  4256
STARLINK-30520          
1 58010U 23153V   23299.66667824 -.01659624  00000+0 -17175-1 0  9994
2 58010  43.0002 103.2461 0001226 286.1791 215.0695 15.66981521  4485
STARLINK-30497          
1 58011U 23153W   23299.66667824 -.01661398  00000+0 -17195-1 0  9998
2 58011  43.0003 103.2450 0001333 281.4208 220.4377 15.66981547  4581
STARLINK-30525          
1 58012U 23153X   23299.66667824 -.01659699  00000+0 -17176-1 0  9999
2 58012  43.0005 103.2430 0001421 289.2379 213.2306 15.66979300  4592
KUIPER-P2               
1 58013U 23154A   23299.18265989  .00010590  00000+0  40988-3 0  9991
2 58013  29.9896 329.1004 0015895 148.4418 211.7161 15.24601243  2963
KUIPER-P1               
1 58014U 23154B   23300.16756166  .00017678  00000+0  68529-3 0  9990
2 58014  29.9899 322.5729 0015191 157.7317 202.3968 15.24723416  3114
ATLAS 5 CENTAUR R/B     
1 58015U 23154C   23279.78196957  .00000153  00000+0  00000+0 0  9996
2 58015  29.9500  95.2397 0019000 272.2000 321.4360 15.22383530    05
THEOS-2 (T2V)           
1 58016U 23155A   23300.22192021  .00001667  00000+0  21865-3 0  9997
2 58016  97.9076   9.0093 0001293  86.3495 273.7866 14.81628388  2685
FORMOSAT-7R (TRITON)    
1 58017U 23155B   23300.08629187  .00002713  00000+0  29956-3 0  9992
2 58017  97.9278   9.0692 0000690 340.1953  19.9236 14.88283604  2670
ANSER-FLW2              
1 58018U 23155C   23300.16020405  .00006058  00000+0  50577-3 0  9999
2 58018  97.6723   8.6857 0004599 289.0587  71.0137 14.98904448  2707
ANSER-FLW1              
1 58019U 23155D   23300.15975936  .00006211  00000+0  51785-3 0  9990
2 58019  97.6723   8.6862 0004475 289.7450  70.3290 14.98948188  2704
NESS                    
1 58020U 23155E   23300.15730084  .00010245  00000+0  84493-3 0  9999
2 58020  97.6733   8.6904 0004014 288.1202  71.9584 14.99209050  2703
CSC 2                   
1 58021U 23155F   23300.15585196  .00004246  00000+0  35302-3 0  9991
2 58021  97.6736   8.6937 0001751 326.7126  33.3987 14.99238643  2701
