OBJECT_NAME,OBJECT_ID,EPOCH,MEAN_MOTION,ECCENTRICITY,INCLINATION,RA_OF_ASC_NODE,ARG_OF_PERICENTER,MEAN_ANOMALY,EPHEMERIS_TYPE,CLASSIFICATION_TYPE,NORAD_CAT_ID,ELEMENT_SET_NO,REV_AT_EPOCH,BSTAR,MEAN_MOTION_DOT,MEAN_MOTION_DDOT
STARLINK-30534,2023-153B,2023-10-26T16:00:00.999936,15.67004844,.0001502,42.9997,103.2755,285.2792,204.3749,0,U,57992,999,449,-.17196E-1,-.1662994E-1,0
STARLINK-30536,2023-153C,2023-10-26T16:00:00.999936,15.67001505,.0001307,43.0000,103.2723,284.2369,206.6384,0,U,57993,999,459,-.17182E-1,-.1661474E-1,0
STARLINK-30538,2023-153D,2023-10-26T16:00:00.999936,15.67000696,.0001467,43.0001,103.2696,281.7438,210.3511,0,U,57994,999,448,-.17203E-1,-.1663318E-1,0
STARLINK-30517,2023-153E,2023-10-26T16:00:00.999936,15.66999086,.0001486,43.0000,103.2678,282.7595,209.9457,0,U,57995,999,459,-.17194E-1,-.1662466E-1,0
STARLINK-30543,2023-153F,2023-10-26T11:11:48.112512,15.84671131,.0003088,42.9985,103.7705,311.6335,48.4273,0,U,57996,999,456,-.12896E-2,-.29844E-2,0
STARLINK-30523,2023-153G,2023-10-26T16:00:00.999936,15.67000860,.0001422,43.0000,103.2708,283.0604,208.4249,0,U,57997,999,459,-.1719E-1,-.1662191E-1,0
STARLINK-30531,2023-153H,2023-10-26T16:00:00.999936,15.66994356,.0001298,43.0001,103.2629,283.7326,210.8040,0,U,57998,999,459,-.17179E-1,-.1660782E-1,0
STARLINK-30552,2023-153J,2023-10-26T16:00:00.999936,15.66995381,.0001331,43.0001,103.2652,286.3746,207.5517,0,U,57999,999,459,-.17178E-1,-.1660779E-1,0
STARLINK-30545,2023-153K,2023-10-26T16:00:00.999936,15.66993136,.0001252,43.0001,103.2611,284.6859,210.4608,0,U,58000,999,459,-.17177E-1,-.1660509E-1,0
STARLINK-30535,2023-153L,2023-10-26T16:00:00.999936,15.66993868,.0001356,43.0003,103.2601,278.3376,217.4186,0,U,58001,999,459,-.17204E-1,-.1662921E-1,0
STARLINK-30540,2023-153M,2023-10-26T16:00:00.999936,15.66991762,.0001538,43.0004,103.2574,286.3624,210.6139,0,U,58002,999,448,-.17206E-1,-.1663082E-1,0
STARLINK-30546,2023-153N,2023-10-26T16:00:00.999936,15.66993072,.0001539,43.0003,103.2589,282.6254,213.7405,0,U,58003,999,459,-.17207E-1,-.1663247E-1,0
STARLINK-30539,2023-153P,2023-10-26T16:00:00.999936,15.66989818,.0001453,43.0003,103.2560,284.0552,213.5317,0,U,58004,999,458,-.17196E-1,-.1662057E-1,0
STARLINK-30530,2023-153Q,2023-10-26T16:00:00.999936,15.66988539,.0001548,43.0003,103.2529,284.0317,214.7746,0,U,58005,999,459,-.17206E-1,-.1662894E-1,0
STARLINK-30526,2023-153R,2023-10-26T16:00:00.999936,15.72023150,.0002895,43.0005,103.2284,308.3939,200.5296,0,U,58006,999,458,.27348E-2,.386037E-2,0
STARLINK-30527,2023-153S,2023-10-26T16:00:00.999936,15.75713515,.000631,42.9993,103.0581,298.7246,278.1759,0,U,58007,999,452,.27214E-2,.45427E-2,0
STARLINK-30522,2023-153T,2023-10-26T16:00:00.999936,15.66985619,.0001431,43.0003,103.2497,280.4425,219.5851,0,U,58008,999,458,-.17203E-1,-.1662387E-1,0
STARLINK-30486,2023-153U,2023-10-26T16:00:00.999936,15.66984711,.0001503,43.0002,103.2479,283.5616,217.0756,0,U,58009,999,425,-.17204E-1,-.1662464E-1,0
STARLINK-30520,2023-153V,2023-10-26T16:00:00.999936,15.66981521,.0001226,43.0002,103.2461,286.1791,215.0695,0,U,58010,999,448,-.17175E-1,-.1659624E-1,0
STARLINK-30497,2023-153W,2023-10-26T16:00:00.999936,15.66981547,.0001333,43.0003,103.2450,281.4208,220.4377,0,U,58011,999,458,-.17195E-1,-.1661398E-1,0
STARLINK-30525,2023-153X,2023-10-26T16:00:00.999936,15.66979300,.0001421,43.0005,103.2430,289.2379,213.2306,0,U,58012,999,459,-.17176E-1,-.1659699E-1,0
KUIPER-P2,2023-154A,2023-10-26T04:23:01.814496,15.24601243,.0015895,29.9896,329.1004,148.4418,211.7161,0,U,58013,999,296,.40988E-3,.1059E-3,0
KUIPER-P1,2023-154B,2023-10-27T04:01:17.327424,15.24723416,.0015191,29.9899,322.5729,157.7317,202.3968,0,U,58014,999,311,.68529E-3,.17678E-3,0
ATLAS 5 CENTAUR R/B,2023-154C,2023-10-06T18:46:02.170848,15.22383530,.0019,29.9500,95.2397,272.2000,321.4360,0,U,58015,999,0,0,.153E-5,0
THEOS-2 (T2V),2023-155A,2023-10-27T05:19:33.906144,14.81628388,.0001293,97.9076,9.0093,86.3495,273.7866,0,U,58016,999,268,.21865E-3,.1667E-4,0
FORMOSAT-7R (TRITON),2023-155B,2023-10-27T02:04:15.617568,14.88283604,.000069,97.9278,9.0692,340.1953,19.9236,0,U,58017,999,267,.29956E-3,.2713E-4,0
ANSER-FLW2,2023-155C,2023-10-27T03:50:41.629920,14.98904448,.0004599,97.6723,8.6857,289.0587,71.0137,0,U,58018,999,270,.50577E-3,.6058E-4,0
ANSER-FLW1,2023-155D,2023-10-27T03:50:03.208704,14.98948188,.0004475,97.6723,8.6862,289.7450,70.3290,0,U,58019,999,270,.51785E-3,.6211E-4,0
NESS,2023-155E,2023-10-27T03:46:30.792576,14.99209050,.0004014,97.6733,8.6904,288.1202,71.9584,0,U,58020,999,270,.84493E-3,.10245E-3,0
CSC 2,2023-155F,2023-10-27T03:44:25.609344,14.99238643,.0001751,97.6736,8.6937,326.7126,33.3987,0,U,58021,999,270,.35302E-3,.4246E-4,0
